NORAD_CAT_ID,OBJECT_NAME,OBJECT_TYPE,EPOCH,MEAN_MOTION,ECCENTRICITY,INCLINATION,RA_OF_ASC_NODE,ARG_OF_PERICENTER,MEAN_ANOMALY,BSTAR,MEAN_MOTION_DOT,MEAN_MOTION_DDOT,TLE_LINE0,TLE_LINE1,TLE_LINE2,SEMIMAJOR_AXIS,PERIOD,APOGEE,PERIGEE,DECAYED
55641.0,STARLINK-5065,PAYLOAD,2023-06-17 08:57:07,15.17414126,0.0004508,69.9973,176.8881,280.2654,79.8007,-0.013714,-0.00265305,0.0,0 STARLINK-5065,1 55641U 23021P   23168.37300418 -.00265305  00000-0 -13714-1 0  9995,2 55641  69.9973 176.8881 0004508 280.2654  79.8007 15.17414126 19541,6891.796,94.898,516.768,510.554,0.0
55641.0,STARLINK-5065,PAYLOAD,2023-06-17 22:00:01,15.14653828,0.0003242,69.9982,175.4751,270.6522,177.6938,-0.050947,-0.008774,0.0,0 STARLINK-5065,1 55641U 23021P   23168.91668981 -.00877400  00000-0 -50947-1 0  9991,2 55641  69.9982 175.4751 0003242 270.6522 177.6938 15.14653828  1309,6900.167,95.071,524.269,519.795,0.0
55641.0,STARLINK-5065,PAYLOAD,2023-06-18 06:00:00,15.13997177,0.000324,69.9983,174.6136,273.5263,191.4525,-0.053144,-0.00896917,0.0,0 STARLINK-5065,1 55641U 23021P   23169.25001157 -.00896917  00000-0 -53144-1 0  9991,2 55641  69.9983 174.6136 0003240 273.5263 191.4525 15.13997177 19379,6902.162,95.112,526.263,521.79,0.0
55641.0,STARLINK-5065,PAYLOAD,2023-06-18 14:00:01,15.13400654,0.0003152,69.9981,173.7527,276.513,204.4079,-0.059248,-0.00976618,0.0,0 STARLINK-5065,1 55641U 23021P   23169.58335648 -.00976618  00000-0 -59248-1 0  9990,2 55641  69.9981 173.7527 0003152 276.5130 204.4079 15.13400654  1301,6903.975,95.15,528.016,523.664,0.0
55641.0,STARLINK-5065,PAYLOAD,2023-06-18 18:14:24,15.14890827,0.0004103,69.9964,173.2995,289.3095,70.7629,-0.014574,-0.00262472,0.0,0 STARLINK-5065,1 55641U 23021P   23169.76000135 -.00262472  00000-0 -14574-1 0  9999,2 55641  69.9964 173.2995 0004103 289.3095  70.7629 15.14890827 19451,6899.447,95.056,524.143,518.481,0.0
55641.0,STARLINK-5065,PAYLOAD,2023-06-19 04:00:00,15.12237992,0.0003259,69.9987,172.2487,272.0492,144.7682,-0.059641,-0.0095344,0.0,0 STARLINK-5065,1 55641U 23021P   23170.16667824 -.00953440  00000-0 -59641-1 0  9995,2 55641  69.9987 172.2487 0003259 272.0492 144.7682 15.12237992 19516,6907.514,95.223,531.63,527.127,0.0
55641.0,STARLINK-5065,PAYLOAD,2023-06-19 10:07:01,15.13405219,0.0003927,69.9971,171.5966,274.8818,85.19,-0.015969,-0.00275312,0.0,0 STARLINK-5065,1 55641U 23021P   23170.42154453 -.00275312  00000-0 -15969-1 0  9993,2 55641  69.9971 171.5966 0003927 274.8818  85.1900 15.13405219 19552,6903.961,95.15,528.538,523.115,0.0
55641.0,STARLINK-5065,PAYLOAD,2023-06-19 22:00:00,15.10752636,0.00031,69.9988,170.3187,269.1954,267.4582,-0.058253,-0.00897728,0.0,0 STARLINK-5065,1 55641U 23021P   23170.91667824 -.00897728  00000-0 -58253-1 0  9992,2 55641  69.9988 170.3187 0003100 269.1954 267.4582 15.10752636 19627,6912.04,95.317,536.048,531.763,0.0
55641.0,STARLINK-5065,PAYLOAD,2023-06-20 14:00:01,15.09487438,0.0003069,69.9987,168.6068,274.2942,285.5524,-0.066347,-0.00980353,0.0,0 STARLINK-5065,1 55641U 23021P   23171.58334491 -.00980353  00000-0 -66347-1 0  9997,2 55641  69.9987 168.6068 0003069 274.2942 285.5524 15.09487438 19723,6915.902,95.397,539.89,535.645,0.0
55641.0,STARLINK-5065,PAYLOAD,2023-06-20 22:00:00,15.08800168,0.0003098,69.9991,167.7523,268.2716,302.007,-0.061988,-0.00904646,0.0,0 STARLINK-5065,1 55641U 23021P   23171.91667824 -.00904646  00000-0 -61988-1 0  9990,2 55641  69.9991 167.7523 0003098 268.2716 302.0070 15.08800168 19772,6918.002,95.44,542.01,537.724,0.0
55641.0,STARLINK-5065,PAYLOAD,2023-06-21 14:00:01,15.07529175,0.00031,69.9991,166.0456,273.6424,315.1382,-0.069927,-0.00990912,0.0,0 STARLINK-5065,1 55641U 23021P   23172.58334491 -.00990912  00000-0 -69927-1 0  9997,2 55641  69.9991 166.0456 0003100 273.6424 315.1382 15.07529175 19876,6921.89,95.521,545.901,541.609,0.0
55641.0,STARLINK-5065,PAYLOAD,2023-06-21 22:00:01,15.06845923,0.0003148,69.9994,165.1937,268.0072,328.9199,-0.065788,-0.00909806,0.0,0 STARLINK-5065,1 55641U 23021P   23172.91668981 -.00909806  00000-0 -65788-1 0  9991,2 55641  69.9994 165.1937 0003148 268.0072 328.9199 15.06845923 19927,6923.982,95.564,548.027,543.668,0.0
55641.0,STARLINK-5065,PAYLOAD,2023-06-22 14:00:01,15.05567273,0.0003088,69.9993,163.4922,270.6044,340.07,-0.07312,-0.00983033,0.0,0 STARLINK-5065,1 55641U 23021P   23173.58334491 -.00983033  00000-0 -73120-1 0  9994,2 55641  69.9993 163.4922 0003088 270.6044 340.0700 15.05567273 20026,6927.902,95.645,551.906,547.628,0.0
55641.0,STARLINK-5065,PAYLOAD,2023-06-22 20:00:01,15.05019789,0.0003083,69.9994,162.8552,267.3087,257.7532,-0.064975,-0.00859005,0.0,0 STARLINK-5065,1 55641U 23021P   23173.83334491 -.00859005  00000-0 -64975-1 0  9991,2 55641  69.9994 162.8552 0003083 267.3087 257.7532 15.05019789 20069,6929.582,95.68,553.583,549.311,0.0
55641.0,STARLINK-5065,PAYLOAD,2023-06-23 06:00:00,15.04205249,0.000323,69.9996,161.7942,271.8618,349.5168,-0.067925,-0.00877221,0.0,0 STARLINK-5065,1 55641U 23021P   23174.25001157 -.00877221  00000-0 -67925-1 0  9996,2 55641  69.9996 161.7942 0003230 271.8618 349.5168 15.04205249 20136,6932.083,95.732,556.187,551.709,0.0
55641.0,STARLINK-5065,PAYLOAD,2023-06-23 22:00:01,15.02938423,0.0003193,69.9996,160.0996,265.3228,3.6528,-0.07394,-0.00919726,0.0,0 STARLINK-5065,1 55641U 23021P   23174.91668981 -.00919726  00000-0 -73940-1 0  9994,2 55641  69.9996 160.0996 0003193 265.3228   3.6528 15.02938423 20234,6935.978,95.812,560.058,555.628,0.0
55641.0,STARLINK-5065,PAYLOAD,2023-06-24 22:00:00,15.00984683,0.0003198,69.9996,157.564,264.8571,9.5202,-0.078399,-0.00925511,0.0,0 STARLINK-5065,1 55641U 23021P   23175.91667824 -.00925511  00000-0 -78399-1 0  9992,2 55641  69.9996 157.5640 0003198 264.8571   9.5202 15.00984683 20388,6941.996,95.937,566.081,561.641,0.0
55641.0,STARLINK-5065,PAYLOAD,2023-06-25 14:00:01,14.99519154,0.0003119,69.9992,155.8776,274.4627,359.6752,-0.02956,-0.00346484,0.0,0 STARLINK-5065,1 55641U 23021P   23176.58334491 -.00346484  00000-0 -29560-1 0  9999,2 55641  69.9992 155.8776 0003119 274.4627 359.6752 14.99519154 20481,6946.518,96.031,570.55,566.216,0.0
55641.0,STARLINK-5065,PAYLOAD,2023-06-25 22:00:01,14.99285603,0.0003039,69.9995,155.0356,268.2735,4.6737,0.0021534,0.00026344,0.0,0 STARLINK-5065,1 55641U 23021P   23176.91668981  .00026344  00000-0  21534-2 0  9992,2 55641  69.9995 155.0356 0003039 268.2735   4.6737 14.99285603 20537,6947.239,96.046,571.216,566.993,0.0
55641.0,STARLINK-5065,PAYLOAD,2023-06-26 14:00:01,14.99319732,0.000307,69.9991,153.3521,273.3289,356.8346,-0.0037415,-0.00045602,0.0,0 STARLINK-5065,1 55641U 23021P   23177.58334491 -.00045602  00000-0 -37415-2 0  9997,2 55641  69.9991 153.3521 0003070 273.3289 356.8346 14.99319732 20634,6947.134,96.044,571.132,566.866,0.0
55641.0,STARLINK-5065,PAYLOAD,2023-06-27 06:00:00,14.993055,0.0003093,69.9992,151.6686,272.924,354.5514,-0.0010441,-0.00012848,0.0,0 STARLINK-5065,1 55641U 23021P   23178.25001157 -.00012848  00000-0 -10441-2 0  9998,2 55641  69.9992 151.6686 0003093 272.9240 354.5514 14.99305500 20736,6947.178,96.044,571.192,566.894,0.0
55641.0,STARLINK-5065,PAYLOAD,2023-06-28 06:00:00,14.99294349,0.0003085,69.9991,149.1432,271.5086,351.9109,0.00065669,7.949e-05,0.0,0 STARLINK-5065,1 55641U 23021P   23179.25001157  .00007949  00000-0  65669-3 0  9996,2 55641  69.9991 149.1432 0003085 271.5086 351.9109 14.99294349 20885,6947.212,96.045,571.221,566.934,0.0
55641.0,STARLINK-5065,PAYLOAD,2023-06-28 14:00:01,14.99315687,0.0003056,69.999,148.3014,269.468,352.5932,-0.0032586,-0.00039757,0.0,0 STARLINK-5065,1 55641U 23021P   23179.58334491 -.00039757  00000-0 -32586-2 0  9997,2 55641  69.9990 148.3014 0003056 269.4680 352.5932 14.99315687 20931,6947.146,96.044,571.134,566.888,0.0
55641.0,STARLINK-5065,PAYLOAD,2023-06-29 01:38:40,14.99301715,0.0003004,69.9982,147.077,271.1527,88.9288,-2.1246e-05,-3.54e-06,0.0,0 STARLINK-5065,1 55641U 23021P   23180.06852764 -.00000354  00000-0 -21246-4 0  9994,2 55641  69.9982 147.0770 0003004 271.1527  88.9288 14.99301715 21000,6947.19,96.045,571.142,566.968,0.0
55641.0,STARLINK-5065,PAYLOAD,2023-06-30 14:28:20,14.99298636,0.0002883,69.9986,143.202,270.7479,89.335,-1.9915e-05,-3.38e-06,0.0,0 STARLINK-5065,1 55641U 23021P   23181.60301420 -.00000338  00000-0 -19915-4 0  9995,2 55641  69.9986 143.2020 0002883 270.7479  89.3350 14.99298636 21232,6947.199,96.045,571.067,567.061,0.0
55641.0,STARLINK-5065,PAYLOAD,2023-07-01 01:40:51,14.99283225,0.0002801,69.9987,142.023,267.0787,93.0052,0.00016977,1.983e-05,0.0,0 STARLINK-5065,1 55641U 23021P   23182.07003592  .00001983  00000-0  16977-3 0  9995,2 55641  69.9987 142.0230 0002801 267.0787  93.0052 14.99283225 21301,6947.247,96.046,571.058,567.166,0.0
55641.0,STARLINK-5065,PAYLOAD,2023-07-01 14:29:25,14.99298859,0.0002814,69.9987,140.6752,270.6252,89.4585,-2.7184e-05,-4.26e-06,0.0,0 STARLINK-5065,1 55641U 23021P   23182.60376749 -.00000426  00000-0 -27184-4 0  9997,2 55641  69.9987 140.6752 0002814 270.6252  89.4585 14.99298859 21382,6947.198,96.045,571.018,567.108,0.0
55641.0,STARLINK-5065,PAYLOAD,2023-07-02 14:30:30,14.99301483,0.0002826,69.9988,138.1482,270.9461,89.1375,-5.0108e-06,-1.55e-06,0.0,0 STARLINK-5065,1 55641U 23021P   23183.60451687 -.00000155  00000-0 -50108-5 0  9995,2 55641  69.9988 138.1482 0002826 270.9461  89.1375 14.99301483 21532,6947.19,96.045,571.019,567.092,0.0
55641.0,STARLINK-5065,PAYLOAD,2023-07-03 14:31:35,14.99299262,0.000287,69.9988,135.6211,271.042,89.0411,1.9197e-05,1.41e-06,0.0,0 STARLINK-5065,1 55641U 23021P   23184.60526845  .00000141  00000-0  19197-4 0  9990,2 55641  69.9988 135.6211 0002870 271.0420  89.0411 14.99299262 21687,6947.197,96.045,571.056,567.068,0.0
55641.0,STARLINK-5065,PAYLOAD,2023-07-05 00:09:06,14.99301718,0.0002811,69.9989,132.0833,270.6467,89.4371,-3.1606e-05,-4.81e-06,0.0,0 STARLINK-5065,1 55641U 23021P   23186.00632105 -.00000481  00000-0 -31606-4 0  9991,2 55641  69.9989 132.0833 0002811 270.6467  89.4371 14.99301718 21892,6947.19,96.045,571.007,567.102,0.0
